#dP2022  7 20  0  0  0.00000000      96 __u+U ITR14 FIT  IAC
## 2219 259200.00000000   900.00000000 59780 0.0000000000000
+  127   C01C02C03C04C05C06C07C08C09C10C11C12C13C14C16C19C20
+        C21C22C23C24C25C26C27C28C29C30C32C33C34C35C36C37C38
+        C39C40C41C42C43C44C45C46C59C60E01E02E03E04E05E07E08
+        E09E10E11E12E13E14E15E18E19E21E24E25E26E27E30E31E33
+        E34E36G01G02G03G04G05G06G07G08G09G10G11G12G13G14G15
+        G16G17G18G19G20G21G22G23G24G25G26G27G28G29G30G31G32
+        J02J03J07R01R02R03R04R05R06R07R08R09R10R11R12R13R14
+        R15R17R18R19R20R21R23R24  0  0  0  0  0  0  0  0  0
++        17 20 17 17 16  9  9  9  9  9  9  9  9  8  9  7  7
++         7  7  7  7  7  7  7  7  7  7  7  7  7  7  7  7  8
++         8  8  8  7  7  7  7  7  0 16  5  4  4  4  5  4  4
++         5  5  4  4  4  4  4  4  4  4  5  4  4  4  4  5  4
++         4  4  3  4  4  4  4  3  4  4  4  3  4  3  4  4  4
++         4  4  4  4  4  4  4  3  4  4  4  4  4  4  4  4  3
++         8  8 17  7  6  6  6  6 15  6  5  6 15  6  6  7  6
++         6  6  6  7  7  6 15  6  0  0  0  0  0  0  0  0  0
%c M  cc GPS ccc cccc cccc cccc cccc ccccc ccccc ccccc ccccc
%c cc cc ccc ccc cccc cccc cccc cccc ccccc ccccc ccccc ccccc
%f  0.0000000  0.000000000  0.00000000000  0.000000000000000
%f  0.0000000  0.000000000  0.00000000000  0.000000000000000
%i    0    0    0    0      0      0      0      0         0
%i    0    0    0    0      0      0      0      0         0
/* INFORMATION & ANALYSIS CENTER (IAC)            RAPID DATA
/* S/V CLOCKS ARE ALIGNED TO GNSS TIME                      
/* G:C1WC2W R:C1PC2P E:C1XC5X C:C2IC6I J:C1CC2S             
/* PCV:IGS14_2215 OL/AL:FES2004  NONE     YN ORB:CoN CLK:CoN
*  2022 07 20  1 30  0.00000000
PC01 -34305.350756  24507.305940    322.707726    439.190962
PC02   4440.969453  41873.169502   -983.471490 999999.999999
PC03 -14792.268724  39445.952262     85.687644   -478.203659
PC04 -39579.613083  14494.777207    632.427858    167.653198
PC05  21961.497980  35923.849561   -927.710395   -129.310157
PC06  -2610.886971  26850.296184 -32325.083599    430.457105
PC07 -16416.711255  31646.709717  22406.813943   -452.164614
PC08  -6724.228681  41098.485022   7111.559082    410.765800
PC09   4755.094709  29887.869783 -28773.691259   -922.383267
PC10  -9387.786473  31453.641991  26474.227653    116.914974
PC11 -16869.709854   6030.243990  21443.986126    484.800784
PC12 -25048.241957  -8492.900254   8896.236176   -572.927983
PC13  -3289.267636  42111.615379   2601.875932     28.879275
PC14 -23241.795322  15184.802040  -2466.894985    549.169662
PC16  -4815.030741  25068.983289 -33306.692161    143.276404
PC19  17130.936619 -18816.660371  11505.839677   -246.730115
PC20  25408.069178 -10353.406540  -5185.919258   -963.954812
PC21 -18886.462382  -5012.470673  19926.640824    -17.038690
PC22  -1359.010153 -16779.642367  22259.895064   -962.928500
PC23   3242.767422  27265.837772   4990.232574   -948.016000
PC24 -16076.551069   5087.689317 -22238.754214   -967.684801
PC25  -8056.091111  24067.842710 -11625.566354   -705.124932
PC26 -14193.191080 -13960.852580 -19549.000867    707.121944
PC27  23958.098860  14296.385840   -329.686434    756.869073
PC28  11835.368102  19860.419479  15632.542942     91.972803
PC29   7611.249803 -13989.496120 -22925.574631    583.997122
PC30  22959.647775    165.187291 -15859.854068    501.263666
PC32  18912.272022   4886.734323 -19922.037760   -972.199610
PC33 -17076.032427  18887.292129 -11394.024694   -206.662351
PC34 -22459.827384    659.097635  16545.581309   -355.020652
PC35 -11363.682463 -19496.964933 -16446.950178    373.708739
PC36   8951.096226 -23507.657658  12113.590554   -972.346602
PC37  13424.586912  15528.769745  18934.192189   -919.065536
PC38 -11013.438051  38208.851169  14261.656395     11.311487
PC39 -10212.575768  21936.077911 -34490.381689     -0.094339
PC40 -23886.840593  26472.166745  22309.716184     -0.862724
PC41    906.286316  16987.286332 -22070.900496    -94.721304
PC42 -25451.960452   9545.244005   6298.586478   -953.011082
PC43  -8466.370568  13622.340135  22823.943148      3.895028
PC44 -24391.917872 -13587.817493     79.207188    729.572375
PC45  -3417.009291 -27173.835708  -5293.532272    813.370591
PC46  15744.479389  -6899.773455  21986.346279   -441.128681
PC59      0.000000      0.000000      0.000000 999999.999999
PC60   7354.214273  41499.252229   1089.184559     -0.192552
PE01 -17197.476420  23783.627475  -3834.618166   -518.463922
PE02  17117.678458 -23861.040869   3676.856946    313.034951
PE03  17764.646766 -13551.727980  19423.392969   -580.766851
PE04   3825.031917  16919.372119 -23976.565749  -1075.146079
PE05  29335.931688  -2138.986965   3346.484772   -161.376757
PE07 -23670.782626 -10352.415799  14443.575477   -689.057576
PE08  -4061.444287 -16756.852217  24061.909971   -566.610540
PE09  23725.813987  10182.938588 -14486.027097   -593.578518
PE10  14642.242684  25728.084803    323.188848   -501.708469
PE11  19066.987255  20370.851692  -9885.631456   2948.366645
PE12   7983.009368  26753.513123   9803.967346    -71.078859
PE13 -18867.557409 -20872.564569   9191.617000    429.887814
PE14 -22875.017039 -10304.677938  -7549.182315  -1774.093970
PE15  -7944.704328 -26706.903998  -9993.896644    732.191571
PE18  30515.010176    753.764225  -5939.870089  -1194.016515
PE19 -20054.124797  12303.357449 -17953.567355  -5045.148156
PE21 -20629.613435   9430.123187 -19011.437870   -746.903965
PE24  11785.478385  12468.722616  24115.040731   -734.316707
PE25  20604.122176  -9136.452431  19198.850028   -581.655408
PE26 -18442.992381  -1816.680111  23074.096326  -1396.918393
PE27 -12547.166573 -11316.202053 -24295.370538   -348.769486
PE30   3654.802291 -25529.339864 -14524.214156   -686.178455
PE31  -2829.859098  25215.226413  15253.722603   -500.211251
PE33  -7602.761796  16759.266967  23178.318227   -454.552251
PE34   7448.743270 -16926.003037 -23123.493265   -486.709012
PE36  18629.373659   2827.766860 -22833.089583   -404.633773
PG01 -16182.626441  -3557.822930  20535.468052    318.086950
PG02  15430.214869  20588.105817  -5654.681945   -651.084435
PG03 -19176.217305   6610.624048  16965.254818   -311.628758
PG04 -26306.134614  -1171.752030  -3818.861630   -143.831918
PG05  13498.821282   7263.214362 -21869.925628    -89.771014
PG06   5143.769946  24862.011214   7730.364139    391.998113
PG07  -9879.806213  13437.559313 -20143.296447    318.631638
PG08 -25817.229254  -5423.603414  -4462.032925    -76.921098
PG09 -21523.118613   7705.785173 -13623.732267   -317.290320
PG10   9950.662536 -23068.536486   8282.046325   -498.018259
PG11  12424.976617  22910.512705  -5192.593347    -10.493566
PG12  18853.690481  -2848.722603  18180.747439   -249.091267
PG13  20048.139393  13287.216615 -11623.176879    351.758433
PG14 -11946.516424  22686.088930   6727.401855   -111.593565
PG15  26154.361289   3170.699926  -4906.393598    -44.060686
PG16  -8448.826374 -13029.826148 -21769.234467   -516.294987
PG17  -6789.868930  13875.046980  22044.820991    638.839656
PG18   9534.448334 -13749.176303 -20609.179148    108.111209
PG19   3730.655020  15409.208440  21098.720348    185.991049
PG20   5457.329975  18462.418379 -18387.763524    501.792725
PG21 -18808.468270 -11977.455860  15572.616367    161.033069
PG22  -6567.843934 -15969.715855  20647.205823    295.280201
PG23  16362.310055 -20710.830218  -2362.521845    -33.661886
PG24  18502.443191   6831.175470  17667.821507    192.405097
PG25  19189.203997 -15604.822389   9018.384574    351.160168
PG26  -1313.336098 -20510.923192 -16740.864462    219.177439
PG27 -17920.668756 -12615.573846 -15492.318890    220.882825
PG28  -5229.505177  21606.256187  15216.262144    335.814677
PG29  21889.092820  -5492.408769 -14118.799845   -535.150148
PG30  -2462.675853  21899.748614 -14551.737432   -534.355301
PG31  -6493.164418 -24999.922010   4888.792913   -186.421752
PG32   3020.374302 -15075.307263  21798.284022   -180.836873
PJ02 -26639.657322  31383.141818  -4359.012591     -1.909077
PJ03 -24616.410655  23963.609631  29519.004806     -0.188571
PJ07 -25349.431243  33687.152920    -29.795023     -0.014546
PR01  13183.394113 -13613.475215  17083.726783     11.762896
PR02  -6753.622714  -9089.622086  22904.323741    524.628274
PR03 -21260.055289    197.032218  14180.040117     60.508733
PR04 -23722.658313   9109.752038  -2246.605043    151.227082
PR05 -13266.569720  13026.543938 -17463.416059     96.509268
PR06   8095.556855   8572.411998 -22626.508588    -60.022855
PR07  21597.476942   -640.220057 -13480.942293     38.102993
PR08  23600.835941  -9322.792625   2519.792474    -66.292727
PR09   3210.865456  21250.038597  13699.347108     66.694495
PR10   9587.844430   7492.263778  22426.551281    -84.346815
PR11  11454.347720 -12223.142987  19258.313731     32.809881
PR12   6356.272708 -24441.897676   3571.583219     19.386282
PR13  -2208.829828 -22083.748486 -12585.705229    -24.791068
PR14 -10101.023804  -5824.082215 -22671.335525     24.826311
PR15 -11585.528155  12966.711497 -18634.459808     94.597538
PR17 -20361.723312 -12897.817492   8284.362808    544.995431
PR18 -14783.567204   -695.419235  20796.582319     33.551872
PR19  -2812.441371  11214.265776  22731.218457   -196.934550
PR20  13645.888005  19048.980377  10036.674453    -74.933996
PR21  20236.308313  12127.163489  -9747.808903   -318.778956
PR23  -2244.411365 -14566.496342 -20832.388520    -48.344752
PR24 -14460.246843 -18829.824872  -9292.772211    104.449234
EOF
